     2              NAVIGATION DATA                         RINEX VERSION / TYPE
CCRINEXN V1.6.0 UX  CDDIS               05-JUN-16 15:33     PGM / RUN BY / DATE 
IGS BROADCAST EPHEMERIS FILE                                COMMENT             
    0.6519D-08  0.2235D-07 -0.5960D-07 -0.1192D-06          ION ALPHA           
    0.8602D+05  0.9830D+05 -0.6554D+05 -0.5243D+06          ION BETA            
    0.000000000000D+00-0.888178419700D-15   147456     1900 DELTA-UTC: A0,A1,T,W
    17                                                      LEAP SECONDS        
                                                            END OF HEADER       
30 16  6  4 14  0  0.0 0.130570959300D-03 0.284217094304D-11 0.000000000000D+00
    0.111000000000D+03 0.138187500000D+03 0.492806240260D-08 0.276891755276D+01
    0.728107988834D-05 0.215374981053D-02 0.417977571487D-05 0.515360445976D+04
    0.568800000000D+06-0.115483999252D-06 0.915552965256D+00 0.186264514923D-07
    0.952179929636D+00 0.296187500000D+03 0.302214174244D+01-0.841427905129D-08
    0.404302563650D-09 0.100000000000D+01 0.189900000000D+04 0.000000000000D+00
    0.280000000000D+01 0.000000000000D+00 0.325962901115D-08 0.111000000000D+03
    0.561600000000D+06 0.000000000000D+00 0.000000000000D+00 0.000000000000D+00
31 16  6  4 14  0  0.0 0.265602022409D-03-0.193267624127D-11 0.000000000000D+00
    0.760000000000D+02 0.157500000000D+03 0.457161899771D-08 0.251339627595D+01
    0.826269388199D-05 0.815040268935D-02 0.488944351673D-05 0.515376038551D+04
    0.568800000000D+06 0.931322574616D-08 0.880911391370D+00 0.189989805222D-06
    0.971236099493D+00 0.291250000000D+03-0.397668380347D+00-0.822784272267D-08
    0.384301721995D-09 0.100000000000D+01 0.189900000000D+04 0.000000000000D+00
    0.200000000000D+01 0.000000000000D+00-0.135041773319D-07 0.760000000000D+02
    0.568050000000D+06 0.400000000000D+01 0.000000000000D+00 0.000000000000D+00
32 16  6  4 14  0  0.0-0.179093331099D-04-0.738964445190D-11 0.000000000000D+00
    0.110000000000D+02 0.501562500000D+02 0.430839374761D-08-0.448266140701D+00
    0.261701643467D-05 0.437072827481D-03 0.132117420435D-04 0.515362154770D+04
    0.568800000000D+06-0.372529029846D-08-0.204752417949D+00-0.242143869400D-07
    0.959968980938D+00 0.125281250000D+03-0.236820750094D+01-0.774139388870D-08
   -0.390373403476D-09 0.100000000000D+01 0.189900000000D+04 0.000000000000D+00
    0.200000000000D+01 0.000000000000D+00 0.465661287308D-09 0.110000000000D+02
    0.561618000000D+06 0.400000000000D+01 0.000000000000D+00 0.000000000000D+00
 3 16  6  4 15 59 44.0-0.642477534711D-04-0.352429196937D-11 0.000000000000D+00
    0.170000000000D+02-0.222812500000D+02 0.490984737199D-08-0.705068032594D+00
   -0.108778476715D-05 0.240508583374D-03 0.534392893314D-05 0.515367783165D+04
    0.575984000000D+06 0.763684511185D-07-0.124559610680D+01 0.558793544769D-07
    0.958814119760D+00 0.276000000000D+03-0.183268298107D+01-0.820641325862D-08
   -0.220009164265D-09 0.100000000000D+01 0.189900000000D+04 0.000000000000D+00
    0.200000000000D+01 0.000000000000D+00 0.186264514923D-08 0.170000000000D+02
    0.574578000000D+06 0.400000000000D+01 0.000000000000D+00 0.000000000000D+00
10 16  6  4 15 59 44.0-0.380938872695D-04-0.852651282912D-11 0.000000000000D+00
    0.400000000000D+01-0.239375000000D+02 0.493841999073D-08 0.205867305622D+01
   -0.120699405670D-05 0.154463457875D-02 0.540353357792D-05 0.515367112923D+04
    0.575984000000D+06-0.316649675369D-07-0.124959879110D+01 0.111758708954D-07
    0.959050574135D+00 0.272062500000D+03-0.270958499675D+01-0.820784188956D-08
   -0.318941856637D-09 0.000000000000D+00 0.189900000000D+04 0.000000000000D+00
    0.200000000000D+01 0.000000000000D+00 0.232830643654D-08 0.400000000000D+01
    0.574110000000D+06 0.400000000000D+01 0.000000000000D+00 0.000000000000D+00
15 16  6  4 15 59 44.0-0.313858501613D-03-0.159161572810D-11 0.000000000000D+00
    0.110000000000D+02 0.250625000000D+02 0.491699052668D-08-0.579072886150D+00
    0.148266553879D-05 0.813597533852D-02 0.115055590868D-04 0.515360961151D+04
    0.575984000000D+06 0.134110450745D-06-0.258960170045D+00 0.108033418655D-06
    0.931051189608D+00 0.140875000000D+03 0.484155523729D+00-0.821427072878D-08
   -0.375372778640D-09 0.000000000000D+00 0.189900000000D+04 0.000000000000D+00
    0.200000000000D+01 0.000000000000D+00-0.107102096081D-07 0.110000000000D+02
    0.568800000000D+06 0.400000000000D+01 0.000000000000D+00 0.000000000000D+00
23 16  6  4 15 59 44.0-0.176718924195D-03-0.159161572810D-11 0.000000000000D+00
    0.210000000000D+02 0.450312500000D+02 0.457233331318D-08-0.108417684379D+01
    0.235810875893D-05 0.109877130017D-01 0.126007944345D-04 0.515367241287D+04
    0.575984000000D+06 0.236555933952D-06-0.201067628668D+00-0.298023223877D-07
    0.946307832057D+00 0.122781250000D+03-0.257131488652D+01-0.792854454142D-08
   -0.332513850537D-09 0.100000000000D+01 0.189900000000D+04 0.000000000000D+00
    0.200000000000D+01 0.000000000000D+00-0.200234353542D-07 0.210000000000D+02
    0.570816000000D+06 0.400000000000D+01 0.000000000000D+00 0.000000000000D+00
 1 16  6  4 16  0  0.0 0.225603580475D-04 0.125055521494D-11 0.000000000000D+00
    0.103000000000D+03 0.222187500000D+02 0.437732516900D-08-0.186520188130D+01
    0.120140612125D-05 0.552913302090D-02 0.905804336071D-05 0.515363903236D+04
    0.576000000000D+06-0.223517417908D-07-0.228736286770D+01-0.949949026108D-07
    0.964430050143D+00 0.207937500000D+03 0.464577648027D+00-0.777925279749D-08
    0.705386526967D-09 0.100000000000D+01 0.189900000000D+04 0.000000000000D+00
    0.200000000000D+01 0.000000000000D+00 0.512227416039D-08 0.103000000000D+03
    0.568800000000D+06 0.000000000000D+00 0.000000000000D+00 0.000000000000D+00
 2 16  6  4 16  0  0.0 0.587628688663D-03-0.250111042988D-11 0.000000000000D+00
    0.830000000000D+02 0.336562500000D+02 0.489341811622D-08-0.151190466504D+01
    0.179745256901D-05 0.157493526349D-01 0.875815749168D-05 0.515357014465D+04
    0.576000000000D+06 0.396743416786D-06-0.233306042010D+01 0.726431608200D-07
    0.943241647926D+00 0.201562500000D+03-0.211170086980D+01-0.807355058150D-08
    0.590381734626D-09 0.100000000000D+01 0.189900000000D+04 0.000000000000D+00
    0.200000000000D+01 0.000000000000D+00-0.200234353542D-07 0.830000000000D+02
    0.568800000000D+06 0.400000000000D+01 0.000000000000D+00 0.000000000000D+00
 3 16  6  4 16  0  0.0-0.642472878099D-04-0.352429196937D-11 0.000000000000D+00
    0.760000000000D+02-0.222812500000D+02 0.490984737199D-08-0.702719219602D+00
   -0.108778476715D-05 0.240510678850D-03 0.534392893314D-05 0.515367784119D+04
    0.576000000000D+06 0.763684511185D-07-0.124559625602D+01 0.558793544769D-07
    0.958814108056D+00 0.276000000000D+03-0.183269811350D+01-0.820641325862D-08
   -0.220009164265D-09 0.100000000000D+01 0.189900000000D+04 0.000000000000D+00
    0.200000000000D+01 0.000000000000D+00 0.186264514923D-08 0.760000000000D+02
    0.568818000000D+06 0.400000000000D+01 0.000000000000D+00 0.000000000000D+00
 4 16  6  4 16  0  0.0-0.257301609963D-03-0.568434188608D-12 0.000000000000D+00
    0.550000000000D+02-0.817500000000D+02 0.584417200465D-08 0.131443055858D+01
   -0.415928661823D-05 0.850945862476D-02 0.148080289364D-05 0.515364535904D+04
    0.576000000000D+06-0.189989805222D-06 0.191893220131D+01 0.162050127983D-06
    0.983037379178D+00 0.366031250000D+03 0.891869330966D+00-0.851106880589D-08
   -0.357157734196D-09 0.100000000000D+01 0.189900000000D+04 0.000000000000D+00
    0.200000000000D+01 0.630000000000D+02-0.195577740669D-07 0.550000000000D+02
    0.568830000000D+06 0.400000000000D+01 0.000000000000D+00 0.000000000000D+00
 5 16  6  4 16  0  0.0-0.115445349365D-03 0.295585778076D-11 0.000000000000D+00
    0.900000000000D+02-0.284375000000D+02 0.521950312754D-08 0.999785797229D+00
   -0.137463212013D-05 0.461256259587D-02 0.502914190292D-05 0.515379572868D+04
    0.576000000000D+06-0.484287738800D-07-0.125760640529D+01 0.353902578354D-07
    0.945878386603D+00 0.274781250000D+03 0.452662191974D+00-0.844499462507D-08
   -0.308941440080D-09 0.000000000000D+00 0.189900000000D+04 0.000000000000D+00
    0.200000000000D+01 0.000000000000D+00-0.107102096081D-07 0.900000000000D+02
    0.568800000000D+06 0.400000000000D+01 0.000000000000D+00 0.000000000000D+00
 6 16  6  4 16  0  0.0 0.200035050511D-03 0.545696821064D-11 0.000000000000D+00
    0.280000000000D+02 0.296562500000D+02 0.446554315065D-08-0.161530003710D+01
    0.152364373207D-05 0.419587013312D-03 0.895746052265D-05 0.515370079803D+04
    0.576000000000D+06 0.465661287308D-07-0.229579249572D+01-0.279396772385D-07
    0.964264896932D+00 0.210531250000D+03-0.135151903119D+01-0.794568811266D-08
    0.634312135932D-09 0.100000000000D+01 0.189900000000D+04 0.000000000000D+00
    0.200000000000D+01 0.000000000000D+00 0.419095158577D-08 0.280000000000D+02
    0.568818000000D+06 0.400000000000D+01 0.000000000000D+00 0.000000000000D+00
 7 16  6  4 16  0  0.0 0.450518447906D-03-0.227373675443D-11 0.000000000000D+00
    0.470000000000D+02 0.152781250000D+03 0.453554606656D-08-0.259124905154D+01
    0.770203769207D-05 0.952716544271D-02 0.572390854359D-05 0.515365138626D+04
    0.576000000000D+06-0.279396772385D-07 0.871465355664D+00-0.268220901489D-06
    0.966429500742D+00 0.275468750000D+03-0.267577665126D+01-0.816069706865D-08
    0.479662837025D-09 0.100000000000D+01 0.189900000000D+04 0.000000000000D+00
    0.200000000000D+01 0.000000000000D+00-0.111758708954D-07 0.470000000000D+02
    0.568818000000D+06 0.400000000000D+01 0.000000000000D+00 0.000000000000D+00
